GLOBALSTAR M023         
1 25621U 99004A   26016.65708721 -.00000053  00000+0  28439-3 0  9996
2 25621  52.0102 123.4144 0009423 235.6791 273.2123 12.62514041242697
GLOBALSTAR M040         
1 25622U 99004B   26016.71472565 -.00000133  00000+0 -16453-3 0  9991
2 25622  51.9921 127.7071 0001765 127.8416  20.0909 12.62026556242215
GLOBALSTAR M036         
1 25623U 99004C   26016.77392068 -.00000058  00000+0  35924-3 0  9996
2 25623  51.9984  37.3411 0010817 100.5289  70.3048 11.86616718204336
GLOBALSTAR M038         
1 25624U 99004D   26016.88470260 -.00000086  00000+0  76663-4 0  9997
2 25624  51.9952 176.1398 0002807 123.2390  31.9657 12.32539310228725
GLOBALSTAR M022         
1 25649U 99012A   26016.88896637 -.00000052  00000+0  41298-3 0  9991
2 25649  52.0047  69.9573 0002645 222.8264 307.7329 12.02508688202081
GLOBALSTAR M041         
1 25650U 99012B   26016.96274119 -.00000058  00000+0  35261-3 0  9996
2 25650  52.0044 317.7275 0001733  34.2867 325.8081 11.96682911203872
GLOBALSTAR M046         
1 25651U 99012C   26016.97606142 -.00000082  00000+0  69085-4 0  9992
2 25651  52.0079  12.0510 0001837 325.3015  51.7739 12.09418806209531
GLOBALSTAR M037         
1 25652U 99012D   26016.93202830 -.00000068  00000+0  20217-3 0  9992
2 25652  51.9988 253.1178 0001532 330.9849  42.9490 12.62459252238274
